[{"OBJECT_NAME":"STARLINK-34997","OBJECT_ID":"2025-192Q","EPOCH":"2026-03-09T22:00:01.999584","MEAN_MOTION":15.30190228,"ECCENTRICITY":8.283e-5,"INCLINATION":53.1578,"RA_OF_ASC_NODE":231.3164,"ARG_OF_PERICENTER":37.1136,"MEAN_ANOMALY":145.9473,"EPHEMERIS_TYPE":0,"CLASSIFICATION_TYPE":"U","NORAD_CAT_ID":65418,"ELEMENT_SET_NO":999,"REV_AT_EPOCH":578,"BSTAR":0.002464819,"MEAN_MOTION_DOT":0.00073342,"MEAN_MOTION_DDOT":0},{"OBJECT_NAME":"CZ-6A DEB","OBJECT_ID":"2022-151DV","EPOCH":"2026-03-09T19:16:59.107296","MEAN_MOTION":15.22406517,"ECCENTRICITY":0.00445255,"INCLINATION":98.4509,"RA_OF_ASC_NODE":160.1888,"ARG_OF_PERICENTER":355.6495,"MEAN_ANOMALY":4.4345,"EPHEMERIS_TYPE":0,"CLASSIFICATION_TYPE":"U","NORAD_CAT_ID":54397,"ELEMENT_SET_NO":999,"REV_AT_EPOCH":17880,"BSTAR":0.0035436228,"MEAN_MOTION_DOT":0.00084931,"MEAN_MOTION_DDOT":0}]
